NORAD_CAT_ID,OBJECT_NAME,OBJECT_TYPE,EPOCH,MEAN_MOTION,ECCENTRICITY,INCLINATION,RA_OF_ASC_NODE,ARG_OF_PERICENTER,MEAN_ANOMALY,BSTAR,MEAN_MOTION_DOT,MEAN_MOTION_DDOT,TLE_LINE0,TLE_LINE1,TLE_LINE2,SEMIMAJOR_AXIS,PERIOD,APOGEE,PERIGEE,DECAYED
54062.0,STARLINK-5170,PAYLOAD,2022-11-04 22:00:01,15.73224612,0.0002553,53.2155,72.1567,17.4391,165.687,-0.0006241,-0.00087414,0.0,0 STARLINK-5170,1 54062U 22136M   22308.91668981 -.00087414  00000-0 -62410-3 0  9996,2 54062  53.2155  72.1567 0002553  17.4391 165.6870 15.73224612  2916,6727.825,91.532,351.408,347.972,0.0
54062.0,STARLINK-5170,PAYLOAD,2022-11-05 14:00:01,15.73077788,0.0002865,53.2155,68.8577,27.4292,333.4369999999999,0.00041982,0.00058409,0.0,0 STARLINK-5170,1 54062U 22136M   22309.58335648  .00058409  00000-0  41982-3 0  9992,2 54062  53.2155  68.8577 0002865  27.4292 333.4370 15.73077788  1319,6728.244000000002,91.54,352.036,348.181,0.0
54062.0,STARLINK-5170,PAYLOAD,2022-11-05 22:00:01,15.73135277,0.0002883,53.2153,67.208,24.9321,64.7329,0.00067657,0.00095161,0.0,0 STARLINK-5170,1 54062U 22136M   22309.91668981  .00095161  00000-0  67657-3 0  9991,2 54062  53.2153  67.2080 0002883  24.9321  64.7329 15.73135277  3075,6728.08,91.537,351.884,348.005,0.0
54062.0,STARLINK-5170,PAYLOAD,2022-11-06 06:00:00,15.73384169,0.0001989,53.2161,65.5549,11.9728,166.4751,-0.0034598,-0.00464075,0.0,0 STARLINK-5170,1 54062U 22136M   22310.25001157 -.00464075  00000-0 -34598-2 0  9999,2 54062  53.2161  65.5549 0001989  11.9728 166.4751 15.73384169  3129,6727.37,91.522,350.5730000000001,347.897,0.0
54062.0,STARLINK-5170,PAYLOAD,2022-11-06 14:00:01,15.73084285,0.000248,53.2171,63.9062,297.4028,330.0216,-0.0099148,-0.0124601,0.0,0 STARLINK-5170,1 54062U 22136M   22310.58334491 -.01246010  00000-0 -99148-2 0  9995,2 54062  53.2171  63.9062 0002480 297.4028 330.0216 15.73084285  3180,6728.225,91.54,351.759,348.422,0.0
54062.0,STARLINK-5170,PAYLOAD,2022-11-07 14:00:01,15.70518886,0.00034,53.2174,58.968,281.5181,247.4892,-0.011125,-0.0125288,0.0,0 STARLINK-5170,1 54062U 22136M   22311.58334491 -.01252880  00000-0 -11125-1 0  9996,2 54062  53.2174  58.9680 0003400 281.5181 247.4892 15.70518886  3334,6735.55,91.689,359.705,355.125,0.0
54062.0,STARLINK-5170,PAYLOAD,2022-11-07 22:00:00,15.69618246,8.31e-05,53.2171,57.3252,341.0532,273.1092,-0.010896,-0.01187188,0.0,0 STARLINK-5170,1 54062U 22136M   22311.91667824 -.01187188  00000-0 -10896-1 0  9994,2 54062  53.2171  57.3252 0000831 341.0532 273.1092 15.69618246  1308,6738.126,91.742,360.551,359.431,0.0
54062.0,STARLINK-5170,PAYLOAD,2022-11-08 00:00:02,15.69350557,0.0005992,53.217,56.9151,270.0612,95.3132,-0.010232,-0.01095331,0.0,0 STARLINK-5170,1 54062U 22136M   22312.00002315 -.01095331  00000-0 -10232-1 0  9995,2 54062  53.2170  56.9151 0005992 270.0612  95.3132 15.69350557  3403,6738.893,91.758,364.795,356.72,0.0
54062.0,STARLINK-5170,PAYLOAD,2022-11-08 10:00:01,15.68341518,0.00033,53.2175,54.8658,268.7575,291.2378,-0.011635,-0.01201797,0.0,0 STARLINK-5170,1 54062U 22136M   22312.41668981 -.01201797  00000-0 -11635-1 0  9990,2 54062  53.2175  54.8658 0003300 268.7575 291.2378 15.68341518  3472,6741.783,91.817,365.872,361.423,0.0
54062.0,STARLINK-5170,PAYLOAD,2022-11-08 12:00:00,15.67498484,0.0006303,53.2166,54.4575,270.6118,40.4282,-0.0038335,-0.00405169,0.0,0 STARLINK-5170,1 54062U 22136M   22312.50001157 -.00405169  00000-0 -38335-2 0  9991,2 54062  53.2166  54.4575 0006303 270.6118  40.4282 15.67498484  3480,6744.2,91.866,370.316,361.814,0.0
54062.0,STARLINK-5170,PAYLOAD,2022-11-08 14:00:01,15.67571098,0.0006274,53.2168,54.0487,272.769,148.737,-0.0069793,-0.00712911,0.0,0 STARLINK-5170,1 54062U 22136M   22312.58334491 -.00712911  00000-0 -69793-2 0  9997,2 54062  53.2168  54.0487 0006274 272.7690 148.7370 15.67571098  1307,6743.991,91.862,370.088,361.625,0.0
54062.0,STARLINK-5170,PAYLOAD,2022-11-08 22:00:00,15.67011287,0.0006793,53.2175,52.4123,270.9778,232.4255,-0.011574,-0.01122119,0.0,0 STARLINK-5170,1 54062U 22136M   22312.91667824 -.01122119  00000-0 -11574-1 0  9992,2 54062  53.2175  52.4123 0006793 270.9778 232.4255 15.67011287  3547,6745.598000000001,91.895,372.045,362.88,0.0
54062.0,STARLINK-5170,PAYLOAD,2022-11-09 06:00:00,15.66190076,0.0004172,53.2175,50.7772,268.163,316.2399,-0.012533,-0.01187346,0.0,0 STARLINK-5170,1 54062U 22136M   22313.25001157 -.01187346  00000-0 -12533-1 0  9990,2 54062  53.2175  50.7772 0004172 268.1630 316.2399 15.66190076  3603,6747.955,91.943,372.636,367.005,0.0
54062.0,STARLINK-5170,PAYLOAD,2022-11-09 14:00:01,15.65365659,4.74e-05,53.2176,49.1484,217.1619,87.2093,-0.013478,-0.01228469,0.0,0 STARLINK-5170,1 54062U 22136M   22313.58334491 -.01228469  00000-0 -13478-1 0  9997,2 54062  53.2176  49.1484 0000474 217.1619  87.2093 15.65365659  1309,6750.324000000001,91.991,372.509,371.869,0.0
54062.0,STARLINK-5170,PAYLOAD,2022-11-09 22:00:01,15.64508329,8.96e-05,53.217,47.5183,68.7824,314.6109,-0.013972,-0.01230343,0.0,0 STARLINK-5170,1 54062U 22136M   22313.91668981 -.01230343  00000-0 -13972-1 0  9991,2 54062  53.2170  47.5183 0000896  68.7824 314.6109 15.64508329  1304,6752.79,92.042,375.26,374.05,0.0
54062.0,STARLINK-5170,PAYLOAD,2022-11-10 06:00:00,15.63631318,0.0001259,53.2171,45.8902,61.5317,39.7301,-0.0141,-0.01202201,0.0,0 STARLINK-5170,1 54062U 22136M   22314.25001157 -.01202201  00000-0 -14100-1 0  9991,2 54062  53.2171  45.8902 0001259  61.5317  39.7301 15.63631318  3751,6755.315,92.093,378.03,376.329,0.0
54062.0,STARLINK-5170,PAYLOAD,2022-11-10 14:00:01,15.62755117,0.0001247,53.2173,44.2669,83.995,94.1701,-0.014252,-0.01176511,0.0,0 STARLINK-5170,1 54062U 22136M   22314.58334491 -.01176511  00000-0 -14252-1 0  9999,2 54062  53.2173  44.2669 0001247  83.9950  94.1701 15.62755117  1305,6757.84,92.145,380.547,378.862,0.0
54062.0,STARLINK-5170,PAYLOAD,2022-11-10 22:00:00,15.61919008,0.0001169,53.2169,42.6432,73.8647,180.1563,-0.015131,-0.0120545,0.0,0 STARLINK-5170,1 54062U 22136M   22314.91667824 -.01205450  00000-0 -15131-1 0  9997,2 54062  53.2169  42.6432 0001169  73.8647 180.1563 15.61919008  1306,6760.251,92.194,382.906,381.326,0.0
54062.0,STARLINK-5170,PAYLOAD,2022-11-11 08:00:01,15.60841216,0.0001187,53.2172,40.6162,63.2988,14.1087,-0.015642,-0.01195934,0.0,0 STARLINK-5170,1 54062U 22136M   22315.33334491 -.01195934  00000-0 -15642-1 0  9997,2 54062  53.2172  40.6162 0001187  63.2988  14.1087 15.60841216  3920,6763.363,92.258,386.031,384.425,0.0
54062.0,STARLINK-5170,PAYLOAD,2022-11-11 14:00:01,15.60195496,0.0001088,53.2175,39.4038,76.3815,326.2835,-0.015977,-0.01191804,0.0,0 STARLINK-5170,1 54062U 22136M   22315.58334491 -.01191804  00000-0 -15977-1 0  9997,2 54062  53.2175  39.4038 0001088  76.3815 326.2835 15.60195496  1305,6765.229,92.296,387.83,386.358,0.0
54062.0,STARLINK-5170,PAYLOAD,2022-11-11 22:00:00,15.59336282,0.0001288,53.2172,37.7859,58.9743,56.4676,-0.016463,-0.01188555,0.0,0 STARLINK-5170,1 54062U 22136M   22315.91667824 -.01188555  00000-0 -16463-1 0  9993,2 54062  53.2172  37.7859 0001288  58.9743  56.4676 15.59336282  1305,6767.714,92.347,390.45,388.707,0.0
54062.0,STARLINK-5170,PAYLOAD,2022-11-12 08:00:01,15.58263261,0.0001072,53.2175,35.7672,82.1534,212.8093,-0.017092,-0.01184763,0.0,0 STARLINK-5170,1 54062U 22136M   22316.33334491 -.01184763  00000-0 -17092-1 0  9997,2 54062  53.2175  35.7672 0001072  82.1534 212.8093 15.58263261  4081,6770.82,92.411,393.411,391.959,0.0
54062.0,STARLINK-5170,PAYLOAD,2022-11-12 14:00:01,15.57560546,0.0001262999999999,53.2176,34.5596,108.6094,149.3206,-0.016225,-0.01103475,0.0,0 STARLINK-5170,1 54062U 22136M   22316.58334491 -.01103475  00000-0 -16225-1 0  9992,2 54062  53.2176  34.5596 0001263 108.6094 149.3206 15.57560546  1308,6772.857,92.452,395.577,393.866,0.0
54062.0,STARLINK-5170,PAYLOAD,2022-11-12 22:00:00,15.56761583,9.47e-05,53.2171,32.9474,102.1896,225.3992,-0.018048,-0.01182238,0.0,0 STARLINK-5170,1 54062U 22136M   22316.91667824 -.01182238  00000-0 -18048-1 0  9997,2 54062  53.2171  32.9474 0000947 102.1896 225.3992 15.56761583  4175,6775.174,92.5,397.68,396.397,0.0
54062.0,STARLINK-5170,PAYLOAD,2022-11-13 14:00:01,15.550854800000002,0.0001281999999999,53.2172,29.7343,114.1462,349.7027,-0.020122,-0.01252024,0.0,0 STARLINK-5170,1 54062U 22136M   22317.58334491 -.01252024  00000-0 -20122-1 0  9999,2 54062  53.2172  29.7343 0001282 114.1462 349.7027 15.55085480  1306,6780.041,92.599,402.775,401.037,0.0
54062.0,STARLINK-5170,PAYLOAD,2022-11-13 22:00:00,15.54194829,0.0001359,53.2171,28.128,117.7843,52.6778,-0.019976,-0.01188785,0.0,0 STARLINK-5170,1 54062U 22136M   22317.91667824 -.01188785  00000-0 -19976-1 0  9992,2 54062  53.2171  28.1280 0001359 117.7843  52.6778 15.54194829  1305,6782.630999999999,92.652,405.418,403.574,0.0
54062.0,STARLINK-5170,PAYLOAD,2022-11-14 14:00:01,15.52478869,0.0001314,53.2175,24.9261,122.1327,178.4294,-0.021201,-0.01203495,0.0,0 STARLINK-5170,1 54062U 22136M   22318.58334491 -.01203495  00000-0 -21201-1 0  9997,2 54062  53.2175  24.9261 0001314 122.1327 178.4294 15.52478869  1307,6787.628000000002,92.755,410.385,408.601,0.0
54062.0,STARLINK-5170,PAYLOAD,2022-11-14 22:00:00,15.51622482,0.0001284,53.2175,23.3261,128.5486,235.5195,-0.021903,-0.0120522,0.0,0 STARLINK-5170,1 54062U 22136M   22318.91667824 -.01205220  00000-0 -21903-1 0  9990,2 54062  53.2175  23.3261 0001284 128.5486 235.5195 15.51622482  1308,6790.125,92.806,412.862,411.119,0.0
54062.0,STARLINK-5170,PAYLOAD,2022-11-15 02:00:01,15.51175492,0.0001517,53.2173,22.527,124.0648,91.3742,-0.021479,-0.01149477,0.0,0 STARLINK-5170,1 54062U 22136M   22319.08334491 -.01149477  00000-0 -21479-1 0  9999,2 54062  53.2173  22.5270 0001517 124.0648  91.3742 15.51175492  4513,6791.43,92.833,414.325,412.265,0.0
54062.0,STARLINK-5170,PAYLOAD,2022-11-15 14:00:01,15.49937179,0.0001656,53.2168,20.1399,107.7772,20.1494,0.0016652999999999,0.000954,0.0,0 STARLINK-5170,1 54062U 22136M   22319.58334491  .00095400  00000-0  16653-2 0  9996,2 54062  53.2168  20.1399 0001656 107.7772  20.1494 15.49937179  1306,6795.047,92.907,418.037,415.786,0.0
